{
  "type": "FeatureCollection",
  "features": [
    {
      "type": "Feature",
      "properties": {
        "norad_id": 19071,
        "name": "OSCAR 32",
        "group": "nnss",
        "lat": 49.103656277238436,
        "lon": 16.415207567457667,
        "alt_km": 1158.0065789835526,
        "timestamp": "2025-12-21T03:56:51.105631+00:00",
        "meta_object_name": "OSCAR 32",
        "meta_object_id": "1988-033B",
        "meta_epoch": "2025-12-20T19:30:47.672064",
        "meta_mean_motion": 13.27955183,
        "meta_eccentricity": 0.0188979,
        "meta_inclination": 90.321,
        "meta_ra_of_asc_node": 16.7751,
        "meta_arg_of_pericenter": 144.421,
        "meta_mean_anomaly": 27.8391,
        "meta_ephemeris_type": 0,
        "meta_classification_type": "U",
        "meta_norad_cat_id": 19071,
        "meta_element_set_no": 999,
        "meta_rev_at_epoch": 82372,
        "meta_bstar": 0.00012053,
        "meta_mean_motion_dot": 7e-07,
        "meta_mean_motion_ddot": 0,
        "tle_line1": "1 19071U 88033B   25354.81305176  .00000070  00000+0  12053-3 0  9990",
        "tle_line2": "2 19071  90.3210  16.7751 0188979 144.4210  27.8391 13.27955183823726"
      },
      "geometry": {
        "type": "Point",
        "coordinates": [
          16.415207567457667,
          49.103656277238436
        ]
      }
    },
    {
      "type": "Feature",
      "properties": {
        "norad_id": 19223,
        "name": "NOVA 2",
        "group": "nnss",
        "lat": 83.07252032782786,
        "lon": -101.84585344130439,
        "alt_km": 1171.2633915095794,
        "timestamp": "2025-12-21T03:56:51.105641+00:00",
        "meta_object_name": "NOVA 2",
        "meta_object_id": "1988-052A",
        "meta_epoch": "2025-12-20T18:57:20.777184",
        "meta_mean_motion": 13.22936663,
        "meta_eccentricity": 0.002991,
        "meta_inclination": 89.9869,
        "meta_ra_of_asc_node": 78.2625,
        "meta_arg_of_pericenter": 354.678,
        "meta_mean_anomaly": 118.6074,
        "meta_ephemeris_type": 0,
        "meta_classification_type": "U",
        "meta_norad_cat_id": 19223,
        "meta_element_set_no": 999,
        "meta_rev_at_epoch": 81054,
        "meta_bstar": 8.9464e-05,
        "meta_mean_motion_dot": 4.6e-07,
        "meta_mean_motion_ddot": 0,
        "tle_line1": "1 19223U 88052A   25354.78982381  .00000046  00000+0  89464-4 0  9999",
        "tle_line2": "2 19223  89.9869  78.2625 0029910 354.6780 118.6074 13.22936663810548"
      },
      "geometry": {
        "type": "Point",
        "coordinates": [
          -101.84585344130439,
          83.07252032782786
        ]
      }
    },
    {
      "type": "Feature",
      "properties": {
        "norad_id": 19419,
        "name": "OSCAR 25",
        "group": "nnss",
        "lat": 48.857479358127314,
        "lon": 20.23288754304536,
        "alt_km": 1165.5070281030576,
        "timestamp": "2025-12-21T03:56:51.105651+00:00",
        "meta_object_name": "OSCAR 25",
        "meta_object_id": "1988-074A",
        "meta_epoch": "2025-12-20T15:45:58.695840",
        "meta_mean_motion": 13.42624735,
        "meta_eccentricity": 0.0094878,
        "meta_inclination": 90.0339,
        "meta_ra_of_asc_node": 20.27,
        "meta_arg_of_pericenter": 222.9127,
        "meta_mean_anomaly": 254.383,
        "meta_ephemeris_type": 0,
        "meta_classification_type": "U",
        "meta_norad_cat_id": 19419,
        "meta_element_set_no": 999,
        "meta_rev_at_epoch": 82746,
        "meta_bstar": 0.00012942,
        "meta_mean_motion_dot": 8.4e-07,
        "meta_mean_motion_ddot": 0,
        "tle_line1": "1 19419U 88074A   25354.65692935  .00000084  00000+0  12942-3 0  9997",
        "tle_line2": "2 19419  90.0339  20.2700 0094878 222.9127 254.3830 13.42624735827461"
      },
      "geometry": {
        "type": "Point",
        "coordinates": [
          20.23288754304536,
          48.857479358127314
        ]
      }
    },
    {
      "type": "Feature",
      "properties": {
        "norad_id": 19420,
        "name": "OSCAR 31",
        "group": "nnss",
        "lat": -67.3426619797049,
        "lon": 20.70784543339662,
        "alt_km": 1090.8147947336347,
        "timestamp": "2025-12-21T03:56:51.105661+00:00",
        "meta_object_name": "OSCAR 31",
        "meta_object_id": "1988-074B",
        "meta_epoch": "2025-12-20T13:01:10.132032",
        "meta_mean_motion": 13.42585981,
        "meta_eccentricity": 0.0093237,
        "meta_inclination": 90.0354,
        "meta_ra_of_asc_node": 20.6208,
        "meta_arg_of_pericenter": 217.3864,
        "meta_mean_anomaly": 309.7263,
        "meta_ephemeris_type": 0,
        "meta_classification_type": "U",
        "meta_norad_cat_id": 19420,
        "meta_element_set_no": 999,
        "meta_rev_at_epoch": 82755,
        "meta_bstar": 0.00014414,
        "meta_mean_motion_dot": 9.2e-07,
        "meta_mean_motion_ddot": 0,
        "tle_line1": "1 19420U 88074B   25354.54247838  .00000092  00000+0  14414-3 0  9990",
        "tle_line2": "2 19420  90.0354  20.6208 0093237 217.3864 309.7263 13.42585981827555"
      },
      "geometry": {
        "type": "Point",
        "coordinates": [
          20.70784543339662,
          -67.3426619797049
        ]
      }
    }
  ]
}